[{"OBJECT_NAME":"A-SEANSAT-PG1","OBJECT_ID":"2023-091AH","EPOCH":"2026-03-09T22:32:06.495648","MEAN_MOTION":15.33422293,"ECCENTRICITY":0.00088895,"INCLINATION":97.5184,"RA_OF_ASC_NODE":136.6191,"ARG_OF_PERICENTER":78.3219,"MEAN_ANOMALY":281.902,"EPHEMERIS_TYPE":0,"CLASSIFICATION_TYPE":"U","NORAD_CAT_ID":57197,"ELEMENT_SET_NO":999,"REV_AT_EPOCH":14948,"BSTAR":0.0007038551,"MEAN_MOTION_DOT":0.00022724,"MEAN_MOTION_DDOT":0},{"OBJECT_NAME":"STARLINK-31012","OBJECT_ID":"2023-192A","EPOCH":"2026-03-09T05:03:33.506208","MEAN_MOTION":15.30194258,"ECCENTRICITY":0.00013249,"INCLINATION":53.1617,"RA_OF_ASC_NODE":64.8527,"ARG_OF_PERICENTER":92.8597,"MEAN_ANOMALY":267.2556,"EPHEMERIS_TYPE":0,"CLASSIFICATION_TYPE":"U","NORAD_CAT_ID":58531,"ELEMENT_SET_NO":999,"REV_AT_EPOCH":12591,"BSTAR":2.8406329e-5,"MEAN_MOTION_DOT":4.82e-6,"MEAN_MOTION_DDOT":0}]
